start=new Date('2022-09-14T00:00:00.000Z').valueOf();
sats=[{"OBJECT_ID":"2021-024AX","SITE":"AFETR","TLE_LINE1":"1 48022U 21024AX  22256.40415754 -.00000090  00000-0  12842-4 0  9993","MEAN_MOTION_DOT":"-0.00000090","APOAPSIS":"548.122","NORAD_CAT_ID":"48022","COUNTRY_CODE":"US","TLE_LINE2":"2 48022  53.0539 287.9076 0001341  83.0952 277.0189 15.06406520 82719","MEAN_MOTION_DDOT":"0.0000000000000","EPOCH":"2022-09-13T09:41:59.211456","CENTER_NAME":"EARTH","GP_ID":"212487204","EPHEMERIS_TYPE":"0","RA_OF_ASC_NODE":"287.9076","CLASSIFICATION_TYPE":"U","MEAN_ANOMALY":"277.0189","LAUNCH_DATE":"2021-03-24","INCLINATION":"53.0539","FILE":"3572069","OBJECT_TYPE":"PAYLOAD","PERIOD":"95.592","PERIAPSIS":"546.265","ELEMENT_SET_NO":"999","ECCENTRICITY":"0.00013410","ARG_OF_PERICENTER":"83.0952","REV_AT_EPOCH":"8271","BSTAR":"0.00001284200000","SEMIMAJOR_AXIS":"6925.329","REF_FRAME":"TEME","OBJECT_NAME":"STARLINK-2298","TIME_SYSTEM":"UTC","DECAY_DATE":null,"MEAN_MOTION":"15.06406520","MEAN_ELEMENT_THEORY":"SGP4","RCS_SIZE":"LARGE"},{"COUNTRY_CODE":"US","NORAD_CAT_ID":"48023","MEAN_MOTION_DOT":"0.00002006","APOAPSIS":"548.143","SITE":"AFETR","TLE_LINE1":"1 48023U 21024AY  22256.32671564  .00002006  00000-0  15350-3 0  9992","OBJECT_ID":"2021-024AY","EPHEMERIS_TYPE":"0","GP_ID":"212487955","CENTER_NAME":"EARTH","EPOCH":"2022-09-13T07:50:28.231296","MEAN_MOTION_DDOT":"0.0000000000000","TLE_LINE2":"2 48023  53.0540 287.9806 0001351  90.5808 269.5336 15.06401961 82700","PERIOD":"95.592","FILE":"3572069","OBJECT_TYPE":"PAYLOAD","INCLINATION":"53.0540","LAUNCH_DATE":"2021-03-24","MEAN_ANOMALY":"269.5336","CLASSIFICATION_TYPE":"U","RA_OF_ASC_NODE":"287.9806","RCS_SIZE":"LARGE","MEAN_ELEMENT_THEORY":"SGP4","MEAN_MOTION":"15.06401961","DECAY_DATE":null,"TIME_SYSTEM":"UTC","SEMIMAJOR_AXIS":"6925.343","OBJECT_NAME":"STARLINK-2292","BSTAR":"0.00015350000000","REF_FRAME":"TEME","REV_AT_EPOCH":"8270","ELEMENT_SET_NO":"999","ECCENTRICITY":"0.00013510","ARG_OF_PERICENTER":"90.5808","PERIAPSIS":"546.272"},{"RCS_SIZE":"LARGE","MEAN_ELEMENT_THEORY":"SGP4","DECAY_DATE":null,"TIME_SYSTEM":"UTC","BSTAR":"0.00004319900000","SEMIMAJOR_AXIS":"6925.343","OBJECT_NAME":"STARLINK-2278","REF_FRAME":"TEME","MEAN_MOTION":"15.06401705","PERIAPSIS":"546.235","REV_AT_EPOCH":"8265","ARG_OF_PERICENTER":"87.6128","ELEMENT_SET_NO":"999","ECCENTRICITY":"0.00014060","OBJECT_TYPE":"PAYLOAD","FILE":"3573088","PERIOD":"95.592","LAUNCH_DATE":"2021-03-24","INCLINATION":"53.0552","CLASSIFICATION_TYPE":"U","MEAN_ANOMALY":"272.5022","RA_OF_ASC_NODE":"290.6722","GP_ID":"212535218","EPHEMERIS_TYPE":"0","CENTER_NAME":"EARTH","MEAN_MOTION_DDOT":"0.0000000000000","EPOCH":"2022-09-13T20:04:55.803072","TLE_LINE2":"2 48026  53.0552 290.6722 0001406  87.6128 272.5022 15.06401705 82653","COUNTRY_CODE":"US","APOAPSIS":"548.182","MEAN_MOTION_DOT":"0.00000362","NORAD_CAT_ID":"48026","SITE":"AFETR","TLE_LINE1":"1 48026U 21024BB  22256.83675698  .00000362  00000-0  43199-4 0  9999","OBJECT_ID":"2021-024BB"},{"OBJECT_ID":"2021-024BC","SITE":"AFETR","TLE_LINE1":"1 48027U 21024BC  22256.33225101  .00000143  00000-0  28475-4 0  9992","APOAPSIS":"548.195","MEAN_MOTION_DOT":"0.00000143","NORAD_CAT_ID":"48027","COUNTRY_CODE":"US","TLE_LINE2":"2 48027  53.0540 267.9376 0001402  83.3980 276.7169 15.06396700 82924","MEAN_MOTION_DDOT":"0.0000000000000","EPOCH":"2022-09-13T07:58:26.487264","CENTER_NAME":"EARTH","GP_ID":"212488449","EPHEMERIS_TYPE":"0","RA_OF_ASC_NODE":"267.9376","CLASSIFICATION_TYPE":"U","MEAN_ANOMALY":"276.7169","LAUNCH_DATE":"2021-03-24","INCLINATION":"53.0540","FILE":"3572069","OBJECT_TYPE":"PAYLOAD","PERIOD":"95.592","PERIAPSIS":"546.253","ELEMENT_SET_NO":"999","ECCENTRICITY":"0.00014020","ARG_OF_PERICENTER":"83.3980","REV_AT_EPOCH":"8292","REF_FRAME":"TEME","SEMIMAJOR_AXIS":"6925.359","BSTAR":"0.00002847500000","OBJECT_NAME":"STARLINK-2300","DECAY_DATE":null,"TIME_SYSTEM":"UTC","MEAN_MOTION":"15.06396700","MEAN_ELEMENT_THEORY":"SGP4","RCS_SIZE":"LARGE"},{"ECCENTRICITY":"0.00014570","ELEMENT_SET_NO":"999","ARG_OF_PERICENTER":"73.5932","REV_AT_EPOCH":"8365","PERIAPSIS":"546.201","MEAN_MOTION":"15.06401190","OBJECT_NAME":"STARLINK-2264","SEMIMAJOR_AXIS":"6925.345","BSTAR":"0.00024011000000","REF_FRAME":"TEME","TIME_SYSTEM":"UTC","DECAY_DATE":null,"MEAN_ELEMENT_THEORY":"SGP4","RCS_SIZE":"LARGE","RA_OF_ASC_NODE":"221.9262","MEAN_ANOMALY":"286.5217","CLASSIFICATION_TYPE":"U","INCLINATION":"53.0541","LAUNCH_DATE":"2021-03-24","PERIOD":"95.592","OBJECT_TYPE":"PAYLOAD","FILE":"3573088","TLE_LINE2":"2 48028  53.0541 221.9262 0001457  73.5932 286.5217 15.06401190 83652","EPOCH":"2022-09-13T15:32:58.877952","MEAN_MOTION_DDOT":"0.0000000000000","CENTER_NAME":"EARTH","EPHEMERIS_TYPE":"0","GP_ID":"212533716","OBJECT_ID":"2021-024BD","SITE":"AFETR","TLE_LINE1":"1 48028U 21024BD  22256.64790368  .00003297  00000-0  24011-3 0  9993","NORAD_CAT_ID":"48028","MEAN_MOTION_DOT":"0.00003297","APOAPSIS":"548.219","COUNTRY_CODE":"US"},{"APOAPSIS":"547.986","MEAN_MOTION_DOT":"0.00013225","NORAD_CAT_ID":"48029","COUNTRY_CODE":"US","OBJECT_ID":"2021-024BE","SITE":"AFETR","TLE_LINE1":"1 48029U 21024BE  22256.56998014  .00013225  00000-0  90414-3 0  9995","MEAN_MOTION_DDOT":"0.0000000000000","EPOCH":"2022-09-13T13:40:46.284096","CENTER_NAME":"EARTH","GP_ID":"212534467","EPHEMERIS_TYPE":"0","TLE_LINE2":"2 48029  53.0520 286.8747 0001289  69.2644 290.8483 15.06439113 82741","LAUNCH_DATE":"2021-03-24","INCLINATION":"53.0520","FILE":"3573088","OBJECT_TYPE":"PAYLOAD","PERIOD":"95.590","RA_OF_ASC_NODE":"286.8747","CLASSIFICATION_TYPE":"U","MEAN_ANOMALY":"290.8483","MEAN_ELEMENT_THEORY":"SGP4","RCS_SIZE":"LARGE","PERIAPSIS":"546.201","ARG_OF_PERICENTER":"69.2644","ELEMENT_SET_NO":"999","ECCENTRICITY":"0.00012890","REV_AT_EPOCH":"8274","OBJECT_NAME":"STARLINK-2299","SEMIMAJOR_AXIS":"6925.229","BSTAR":"0.00090414000000","REF_FRAME":"TEME","TIME_SYSTEM":"UTC","DECAY_DATE":null,"MEAN_MOTION":"15.06439113"},{"LAUNCH_DATE":"2021-03-24","INCLINATION":"53.0554","FILE":"3573088","OBJECT_TYPE":"PAYLOAD","PERIOD":"95.592","RA_OF_ASC_NODE":"290.8624","CLASSIFICATION_TYPE":"U","MEAN_ANOMALY":"296.3705","MEAN_ELEMENT_THEORY":"SGP4","RCS_SIZE":"LARGE","PERIAPSIS":"546.171","ELEMENT_SET_NO":"999","ECCENTRICITY":"0.00015180","ARG_OF_PERICENTER":"63.7440","REV_AT_EPOCH":"8264","SEMIMAJOR_AXIS":"6925.357","REF_FRAME":"TEME","BSTAR":"0.00005875100000","OBJECT_NAME":"STARLINK-2268","DECAY_DATE":null,"TIME_SYSTEM":"UTC","MEAN_MOTION":"15.06397265","MEAN_MOTION_DOT":"0.00000594","APOAPSIS":"548.273","NORAD_CAT_ID":"48030","COUNTRY_CODE":"US","OBJECT_ID":"2021-024BF","TLE_LINE1":"1 48030U 21024BF  22256.79621768  .00000594  00000-0  58751-4 0  9995","SITE":"AFETR","EPOCH":"2022-09-13T19:06:33.207552","MEAN_MOTION_DDOT":"0.0000000000000","CENTER_NAME":"EARTH","GP_ID":"212534718","EPHEMERIS_TYPE":"0","TLE_LINE2":"2 48030  53.0554 290.8624 0001518  63.7440 296.3705 15.06397265 82645"},{"EPOCH":"2022-09-13T04:06:12.741984","MEAN_MOTION_DDOT":"0.0000000000000","CENTER_NAME":"EARTH","EPHEMERIS_TYPE":"0","GP_ID":"212488950","TLE_LINE2":"2 48031  53.0546 178.6725 0001695  62.8924 297.2238 15.06407457 84160","NORAD_CAT_ID":"48031","APOAPSIS":"548.365","MEAN_MOTION_DOT":"0.00002313","COUNTRY_CODE":"US","OBJECT_ID":"2021-024BG","TLE_LINE1":"1 48031U 21024BG  22256.17098081  .00002313  00000-0  17410-3 0  9991","SITE":"AFETR","MEAN_ELEMENT_THEORY":"SGP4","RCS_SIZE":"LARGE","ELEMENT_SET_NO":"999","ARG_OF_PERICENTER":"62.8924","ECCENTRICITY":"0.00016950","REV_AT_EPOCH":"8416","PERIAPSIS":"546.017","MEAN_MOTION":"15.06407457","BSTAR":"0.00017410000000","SEMIMAJOR_AXIS":"6925.326","OBJECT_NAME":"STARLINK-2267","REF_FRAME":"TEME","TIME_SYSTEM":"UTC","DECAY_DATE":null,"INCLINATION":"53.0546","LAUNCH_DATE":"2021-03-24","PERIOD":"95.592","FILE":"3572069","OBJECT_TYPE":"PAYLOAD","RA_OF_ASC_NODE":"178.6725","MEAN_ANOMALY":"297.2238","CLASSIFICATION_TYPE":"U"},{"PERIOD":"95.592","FILE":"3573088","OBJECT_TYPE":"PAYLOAD","INCLINATION":"53.0530","LAUNCH_DATE":"2021-03-24","MEAN_ANOMALY":"281.0001","CLASSIFICATION_TYPE":"U","RA_OF_ASC_NODE":"287.2369","RCS_SIZE":"LARGE","MEAN_ELEMENT_THEORY":"SGP4","MEAN_MOTION":"15.06403982","TIME_SYSTEM":"UTC","DECAY_DATE":null,"REF_FRAME":"TEME","SEMIMAJOR_AXIS":"6925.336","BSTAR":"0.00035643000000","OBJECT_NAME":"STARLINK-2286","REV_AT_EPOCH":"8273","ELEMENT_SET_NO":"999","ECCENTRICITY":"0.00013510","ARG_OF_PERICENTER":"79.1140","PERIAPSIS":"546.266","COUNTRY_CODE":"US","NORAD_CAT_ID":"48033","MEAN_MOTION_DOT":"0.00005032","APOAPSIS":"548.137","TLE_LINE1":"1 48033U 21024BJ  22256.49259263  .00005032  00000-0  35643-3 0  9998","SITE":"AFETR","OBJECT_ID":"2021-024BJ","EPHEMERIS_TYPE":"0","GP_ID":"212534217","CENTER_NAME":"EARTH","MEAN_MOTION_DDOT":"0.0000000000000","EPOCH":"2022-09-13T11:49:20.003232","TLE_LINE2":"2 48033  53.0530 287.2369 0001351  79.1140 281.0001 15.06403982 82735"},{"INCLINATION":"53.0537","LAUNCH_DATE":"2021-03-24","PERIOD":"95.593","FILE":"3573088","OBJECT_TYPE":"PAYLOAD","RA_OF_ASC_NODE":"285.9557","MEAN_ANOMALY":"284.8057","CLASSIFICATION_TYPE":"U","MEAN_ELEMENT_THEORY":"SGP4","RCS_SIZE":"LARGE","ELEMENT_SET_NO":"999","ECCENTRICITY":"0.00014350","ARG_OF_PERICENTER":"75.3091","REV_AT_EPOCH":"8277","PERIAPSIS":"546.240","MEAN_MOTION":"15.06393443","BSTAR":"0.00003584800000","SEMIMAJOR_AXIS":"6925.369","OBJECT_NAME":"STARLINK-2288","REF_FRAME":"TEME","TIME_SYSTEM":"UTC","DECAY_DATE":null,"NORAD_CAT_ID":"48034","APOAPSIS":"548.227","MEAN_MOTION_DOT":"0.00000252","COUNTRY_CODE":"US","OBJECT_ID":"2021-024BK","SITE":"AFETR","TLE_LINE1":"1 48034U 21024BK  22256.77641241  .00000252  00000-0  35848-4 0  9998","MEAN_MOTION_DDOT":"0.0000000000000","EPOCH":"2022-09-13T18:38:02.032224","CENTER_NAME":"EARTH","EPHEMERIS_TYPE":"0","GP_ID":"212533967","TLE_LINE2":"2 48034  53.0537 285.9557 0001435  75.3091 284.8057 15.06393443 82779"}];
